ONEWEB-0136             
1 47282U 20100AA  26129.15812944  .00000444  00000+0  11975-2 0  9996
2 47282  87.8979 358.4083 0001627  71.9991 288.1314 13.12445111259541
ONEWEB-0137             
1 47283U 20100AB  26129.19200348 -.00000256  00000+0 -74651-3 0  9994
2 47283  87.8984 358.4097 0001772  87.1989 272.9342 13.12444094259451
ONEWEB-0138             
1 47284U 20100AC  26129.17001309  .00000381  00000+0  10231-2 0  9999
2 47284  87.8980 358.4213 0001612  76.7779 283.3529 13.12443817259536
ONEWEB-0139             
1 47285U 20100AD  26129.13456648 -.00000189  00000+0 -55937-3 0  9997
2 47285  87.8977 358.4149 0001711  81.9257 278.2066 13.12443920259602
ONEWEB-0140             
1 47286U 20100AE  26129.16490802  .00000461  00000+0  12454-2 0  9998
2 47286  87.8981 358.3989 0001889  78.8899 281.2442 13.12444607259573
ONEWEB-0141             
1 47287U 20100AF  26129.13427051 -.00000224  00000+0 -65917-3 0  9994
2 47287  87.8978 358.4103 0001715  93.2435 266.8890 13.12445620259554
ONEWEB-0142             
1 47288U 20100AG  26129.12267653 -.00000409  00000+0 -11720-2 0  9991
2 47288  87.8975 358.4364 0001440  91.5106 268.6188 13.12441964259548
ONEWEB-0143             
1 47289U 20100AH  26129.13271375 -.00000250  00000+0 -73013-3 0  9997
2 47289  87.8979 358.4312 0001753  83.6871 276.4457 13.12445363259525
ONEWEB-0144             
1 47290U 20100AJ  26129.18015009  .00000102  00000+0  24789-3 0  9994
2 47290  87.8984 358.3943 0001439  79.4055 280.7236 13.12442368259457
ONEWEB-0145             
1 47291U 20100AK  26129.15135766  .00000331  00000+0  88411-3 0  9991
2 47291  87.8972 358.4318 0001682  82.4175 277.7145 13.12445436259644
ONEWEB-0146             
1 47292U 20100AL  26129.14796580  .00000207  00000+0  54004-3 0  9991
2 47292  87.8981 358.4215 0002094  81.6147 278.5219 13.12446017259556
ONEWEB-0147             
1 47293U 20100AM  26129.19031351 -.00000227  00000+0 -66632-3 0  9999
2 47293  87.8980 358.3942 0001807  77.4133 282.7197 13.12443584259458
ONEWEB-0115             
1 48042U 21025A   26129.09661231  .00000093  00000+0  22025-3 0  9991
2 48042  87.8956 328.0105 0001814  87.0034 273.1303 13.13470462248462
ONEWEB-0152             
1 48043U 21025B   26129.03397522 -.00000247  00000+0 -71242-3 0  9993
2 48043  87.8950 328.0201 0001867  85.8683 274.2659 13.13470747248415
ONEWEB-0153             
1 48044U 21025C   26129.08814241  .00000248  00000+0  64444-3 0  9996
2 48044  87.8948 328.0137 0001675  89.1302 271.0019 13.13470824248414
ONEWEB-0154             
1 48045U 21025D   26129.08475387  .00000360  00000+0  95183-3 0  9990
2 48045  87.8948 328.0121 0001747  84.3491 275.7838 13.13469989248379
