[{"OBJECT_NAME":"ONEWEB-0136","OBJECT_ID":"2020-100AA","EPOCH":"2026-05-09T03:47:42.383616","MEAN_MOTION":13.12445111,"ECCENTRICITY":0.0001627,"INCLINATION":87.8979,"RA_OF_ASC_NODE":358.4083,"ARG_OF_PERICENTER":71.9991,"MEAN_ANOMALY":288.1314,"EPHEMERIS_TYPE":0,"CLASSIFICATION_TYPE":"U","NORAD_CAT_ID":47282,"ELEMENT_SET_NO":999,"REV_AT_EPOCH":25954,"BSTAR":0.0011975,"MEAN_MOTION_DOT":4.44e-06,"MEAN_MOTION_DDOT":0.0},{"OBJECT_NAME":"ONEWEB-0137","OBJECT_ID":"2020-100AB","EPOCH":"2026-05-09T04:36:29.100672","MEAN_MOTION":13.12444094,"ECCENTRICITY":0.0001772,"INCLINATION":87.8984,"RA_OF_ASC_NODE":358.4097,"ARG_OF_PERICENTER":87.1989,"MEAN_ANOMALY":272.9342,"EPHEMERIS_TYPE":0,"CLASSIFICATION_TYPE":"U","NORAD_CAT_ID":47283,"ELEMENT_SET_NO":999,"REV_AT_EPOCH":25945,"BSTAR":-0.00074651,"MEAN_MOTION_DOT":-2.56e-06,"MEAN_MOTION_DDOT":0.0},{"OBJECT_NAME":"ONEWEB-0138","OBJECT_ID":"2020-100AC","EPOCH":"2026-05-09T04:04:49.130976","MEAN_MOTION":13.12443817,"ECCENTRICITY":0.0001612,"INCLINATION":87.898,"RA_OF_ASC_NODE":358.4213,"ARG_OF_PERICENTER":76.7779,"MEAN_ANOMALY":283.3529,"EPHEMERIS_TYPE":0,"CLASSIFICATION_TYPE":"U","NORAD_CAT_ID":47284,"ELEMENT_SET_NO":999,"REV_AT_EPOCH":25953,"BSTAR":0.0010231,"MEAN_MOTION_DOT":3.81e-06,"MEAN_MOTION_DDOT":0.0},{"OBJECT_NAME":"ONEWEB-0139","OBJECT_ID":"2020-100AD","EPOCH":"2026-05-09T03:13:46.543872","MEAN_MOTION":13.1244392,"ECCENTRICITY":0.0001711,"INCLINATION":87.8977,"RA_OF_ASC_NODE":358.4149,"ARG_OF_PERICENTER":81.9257,"MEAN_ANOMALY":278.2066,"EPHEMERIS_TYPE":0,"CLASSIFICATION_TYPE":"U","NORAD_CAT_ID":47285,"ELEMENT_SET_NO":999,"REV_AT_EPOCH":25960,"BSTAR":-0.00055937,"MEAN_MOTION_DOT":-1.89e-06,"MEAN_MOTION_DDOT":0.0},{"OBJECT_NAME":"ONEWEB-0140","OBJECT_ID":"2020-100AE","EPOCH":"2026-05-09T03:57:28.052928","MEAN_MOTION":13.12444607,"ECCENTRICITY":0.0001889,"INCLINATION":87.8981,"RA_OF_ASC_NODE":358.3989,"ARG_OF_PERICENTER":78.8899,"MEAN_ANOMALY":281.2442,"EPHEMERIS_TYPE":0,"CLASSIFICATION_TYPE":"U","NORAD_CAT_ID":47286,"ELEMENT_SET_NO":999,"REV_AT_EPOCH":25957,"BSTAR":0.0012454,"MEAN_MOTION_DOT":4.61e-06,"MEAN_MOTION_DDOT":0.0},{"OBJECT_NAME":"ONEWEB-0141","OBJECT_ID":"2020-100AF","EPOCH":"2026-05-09T03:13:20.972064","MEAN_MOTION":13.1244562,"ECCENTRICITY":0.0001715,"INCLINATION":87.8978,"RA_OF_ASC_NODE":358.4103,"ARG_OF_PERICENTER":93.2435,"MEAN_ANOMALY":266.889,"EPHEMERIS_TYPE":0,"CLASSIFICATION_TYPE":"U","NORAD_CAT_ID":47287,"ELEMENT_SET_NO":999,"REV_AT_EPOCH":25955,"BSTAR":-0.00065917,"MEAN_MOTION_DOT":-2.24e-06,"MEAN_MOTION_DDOT":0.0},{"OBJECT_NAME":"ONEWEB-0142","OBJECT_ID":"2020-100AG","EPOCH":"2026-05-09T02:56:39.252192","MEAN_MOTION":13.12441964,"ECCENTRICITY":0.000144,"INCLINATION":87.8975,"RA_OF_ASC_NODE":358.4364,"ARG_OF_PERICENTER":91.5106,"MEAN_ANOMALY":268.6188,"EPHEMERIS_TYPE":0,"CLASSIFICATION_TYPE":"U","NORAD_CAT_ID":47288,"ELEMENT_SET_NO":999,"REV_AT_EPOCH":25954,"BSTAR":-0.001172,"MEAN_MOTION_DOT":-4.09e-06,"MEAN_MOTION_DDOT":0.0},{"OBJECT_NAME":"ONEWEB-0143","OBJECT_ID":"2020-100AH","EPOCH":"2026-05-09T03:11:06.468000","MEAN_MOTION":13.12445363,"ECCENTRICITY":0.0001753,"INCLINATION":87.8979,"RA_OF_ASC_NODE":358.4312,"ARG_OF_PERICENTER":83.6871,"MEAN_ANOMALY":276.4457,"EPHEMERIS_TYPE":0,"CLASSIFICATION_TYPE":"U","NORAD_CAT_ID":47289,"ELEMENT_SET_NO":999,"REV_AT_EPOCH":25952,"BSTAR":-0.00073013,"MEAN_MOTION_DOT":-2.5e-06,"MEAN_MOTION_DDOT":0.0},{"OBJECT_NAME":"ONEWEB-0144","OBJECT_ID":"2020-100AJ","EPOCH":"2026-05-09T04:19:24.967776","MEAN_MOTION":13.12442368,"ECCENTRICITY":0.0001439,"INCLINATION":87.8984,"RA_OF_ASC_NODE":358.3943,"ARG_OF_PERICENTER":79.4055,"MEAN_ANOMALY":280.7236,"EPHEMERIS_TYPE":0,"CLASSIFICATION_TYPE":"U","NORAD_CAT_ID":47290,"ELEMENT_SET_NO":999,"REV_AT_EPOCH":25945,"BSTAR":0.00024789,"MEAN_MOTION_DOT":1.02e-06,"MEAN_MOTION_DDOT":0.0},{"OBJECT_NAME":"ONEWEB-0145","OBJECT_ID":"2020-100AK","EPOCH":"2026-05-09T03:37:57.301824","MEAN_MOTION":13.12445436,"ECCENTRICITY":0.0001682,"INCLINATION":87.8972,"RA_OF_ASC_NODE":358.4318,"ARG_OF_PERICENTER":82.4175,"MEAN_ANOMALY":277.7145,"EPHEMERIS_TYPE":0,"CLASSIFICATION_TYPE":"U","NORAD_CAT_ID":47291,"ELEMENT_SET_NO":999,"REV_AT_EPOCH":25964,"BSTAR":0.00088411,"MEAN_MOTION_DOT":3.31e-06,"MEAN_MOTION_DDOT":0.0},{"OBJECT_NAME":"ONEWEB-0146","OBJECT_ID":"2020-100AL","EPOCH":"2026-05-09T03:33:04.245120","MEAN_MOTION":13.12446017,"ECCENTRICITY":0.0002094,"INCLINATION":87.8981,"RA_OF_ASC_NODE":358.4215,"ARG_OF_PERICENTER":81.6147,"MEAN_ANOMALY":278.5219,"EPHEMERIS_TYPE":0,"CLASSIFICATION_TYPE":"U","NORAD_CAT_ID":47292,"ELEMENT_SET_NO":999,"REV_AT_EPOCH":25955,"BSTAR":0.00054004,"MEAN_MOTION_DOT":2.07e-06,"MEAN_MOTION_DDOT":0.0},{"OBJECT_NAME":"ONEWEB-0147","OBJECT_ID":"2020-100AM","EPOCH":"2026-05-09T04:34:03.087264","MEAN_MOTION":13.12443584,"ECCENTRICITY":0.0001807,"INCLINATION":87.898,"RA_OF_ASC_NODE":358.3942,"ARG_OF_PERICENTER":77.4133,"MEAN_ANOMALY":282.7197,"EPHEMERIS_TYPE":0,"CLASSIFICATION_TYPE":"U","NORAD_CAT_ID":47293,"ELEMENT_SET_NO":999,"REV_AT_EPOCH":25945,"BSTAR":-0.0006663200000000001,"MEAN_MOTION_DOT":-2.27e-06,"MEAN_MOTION_DDOT":0.0},{"OBJECT_NAME":"ONEWEB-0115","OBJECT_ID":"2021-025A","EPOCH":"2026-05-09T02:19:07.303584","MEAN_MOTION":13.13470462,"ECCENTRICITY":0.0001814,"INCLINATION":87.8956,"RA_OF_ASC_NODE":328.0105,"ARG_OF_PERICENTER":87.0034,"MEAN_ANOMALY":273.1303,"EPHEMERIS_TYPE":0,"CLASSIFICATION_TYPE":"U","NORAD_CAT_ID":48042,"ELEMENT_SET_NO":999,"REV_AT_EPOCH":24846,"BSTAR":0.00022025000000000001,"MEAN_MOTION_DOT":9.3e-07,"MEAN_MOTION_DDOT":0.0},{"OBJECT_NAME":"ONEWEB-0152","OBJECT_ID":"2021-025B","EPOCH":"2026-05-09T00:48:55.459008","MEAN_MOTION":13.13470747,"ECCENTRICITY":0.0001867,"INCLINATION":87.895,"RA_OF_ASC_NODE":328.0201,"ARG_OF_PERICENTER":85.8683,"MEAN_ANOMALY":274.2659,"EPHEMERIS_TYPE":0,"CLASSIFICATION_TYPE":"U","NORAD_CAT_ID":48043,"ELEMENT_SET_NO":999,"REV_AT_EPOCH":24841,"BSTAR":-0.0007124200000000001,"MEAN_MOTION_DOT":-2.47e-06,"MEAN_MOTION_DDOT":0.0},{"OBJECT_NAME":"ONEWEB-0153","OBJECT_ID":"2021-025C","EPOCH":"2026-05-09T02:06:55.504224","MEAN_MOTION":13.13470824,"ECCENTRICITY":0.0001675,"INCLINATION":87.8948,"RA_OF_ASC_NODE":328.0137,"ARG_OF_PERICENTER":89.1302,"MEAN_ANOMALY":271.0019,"EPHEMERIS_TYPE":0,"CLASSIFICATION_TYPE":"U","NORAD_CAT_ID":48044,"ELEMENT_SET_NO":999,"REV_AT_EPOCH":24841,"BSTAR":0.00064444,"MEAN_MOTION_DOT":2.48e-06,"MEAN_MOTION_DDOT":0.0},{"OBJECT_NAME":"ONEWEB-0154","OBJECT_ID":"2021-025D","EPOCH":"2026-05-09T02:02:02.734368","MEAN_MOTION":13.13469989,"ECCENTRICITY":0.0001747,"INCLINATION":87.8948,"RA_OF_ASC_NODE":328.0121,"ARG_OF_PERICENTER":84.3491,"MEAN_ANOMALY":275.7838,"EPHEMERIS_TYPE":0,"CLASSIFICATION_TYPE":"U","NORAD_CAT_ID":48045,"ELEMENT_SET_NO":999,"REV_AT_EPOCH":24837,"BSTAR":0.00095183,"MEAN_MOTION_DOT":3.6e-06,"MEAN_MOTION_DDOT":0.0}]